NORAD_CAT_ID,OBJECT_NAME,OBJECT_TYPE,EPOCH,MEAN_MOTION,ECCENTRICITY,INCLINATION,RA_OF_ASC_NODE,ARG_OF_PERICENTER,MEAN_ANOMALY,BSTAR,MEAN_MOTION_DOT,MEAN_MOTION_DDOT,TLE_LINE0,TLE_LINE1,TLE_LINE2,SEMIMAJOR_AXIS,PERIOD,APOGEE,PERIGEE,DECAYED
49728.0,STARLINK-3240,PAYLOAD,2023-11-28 22:09:41,15.08873983,0.0001779,53.218,293.0644,103.6917,256.4274,0.0017966,0.00028447,0.0,0 STARLINK-3240,1 49728U 21115E   23332.92339265  .00028447  00000-0  17966-2 0  9998,2 49728  53.2180 293.0644 0001779 103.6917 256.4274 15.08873983109822,6917.777,95.435,540.872,538.411,0.0
49728.0,STARLINK-3240,PAYLOAD,2023-11-29 02:55:50,15.08869534,0.0001782,53.2177,292.1711,102.9431,257.1761,0.0014771,0.00023317,0.0,0 STARLINK-3240,1 49728U 21115E   23333.12211041  .00023317  00000-0  14771-2 0  9994,2 49728  53.2177 292.1711 0001782 102.9431 257.1761 15.08869534110963,6917.79,95.436,540.888,538.422,0.0
49728.0,STARLINK-3240,PAYLOAD,2023-11-29 07:41:59,15.08875689,0.0001737,53.218,291.2803,101.8868,258.2319,0.0014368,0.00022675,0.0,0 STARLINK-3240,1 49728U 21115E   23333.32082651  .00022675  00000-0  14368-2 0  9997,2 49728  53.2180 291.2803 0001737 101.8868 258.2319 15.08875689109889,6917.771,95.435,540.838,538.435,0.0
49728.0,STARLINK-3240,PAYLOAD,2023-11-30 02:46:37,15.08840806,0.000187,53.2179,287.7082,87.5241,272.5966,0.0004125,6.283e-05,0.0,0 STARLINK-3240,1 49728U 21115E   23334.11571190  .00006283  00000-0  41250-3 0  9994,2 49728  53.2179 287.7082 0001870  87.5241 272.5966 15.08840806111118,6917.878,95.438,541.037,538.449,0.0
49728.0,STARLINK-3240,PAYLOAD,2023-12-01 04:12:48,15.08835436,0.0001822,53.2169,282.9518,77.6459,282.4737,0.0004108,6.255e-05,0.0,0 STARLINK-3240,1 49728U 21115E   23335.17555913  .00006255  00000-0  41080-3 0  9996,2 49728  53.2169 282.9518 0001822  77.6459 282.4737 15.08835436111272,6917.894,95.438,541.02,538.499,0.0
49728.0,STARLINK-3240,PAYLOAD,2023-12-01 05:48:11,15.08839229,0.0001711,53.2169,282.655,94.2396,265.8791,0.00053823,8.288e-05,0.0,0 STARLINK-3240,1 49728U 21115E   23335.24179772  .00008288  00000-0  53823-3 0  9995,2 49728  53.2169 282.6550 0001711  94.2396 265.8791 15.08839229110174,6917.883,95.438,540.931,538.564,0.0
49728.0,STARLINK-3240,PAYLOAD,2023-12-02 00:52:48,15.08864999,0.0001561,53.2166,279.0885,91.3288,268.7882,0.00077796,0.00012123,0.0,0 STARLINK-3240,1 49728U 21115E   23336.03666847  .00012123  00000-0  77796-3 0  9995,2 49728  53.2166 279.0885 0001561  91.3288 268.7882 15.08864999111405,6917.804,95.436,540.749,538.589,0.0
49728.0,STARLINK-3240,PAYLOAD,2023-12-02 02:28:11,15.08882475,0.0001858,53.2164,278.7957,78.229,281.8911,0.0018918,0.00029984,0.0,0 STARLINK-3240,1 49728U 21115E   23336.10290887  .00029984  00000-0  18918-2 0  9993,2 49728  53.2164 278.7957 0001858  78.2290 281.8911 15.08882475111414,6917.751,95.435,540.901,538.33,0.0
49728.0,STARLINK-3240,PAYLOAD,2023-12-03 02:18:58,15.0883255,0.0001786,53.2179,274.3276,126.9459,233.1697,-8.3585e-05,-1.618e-05,0.0,0 STARLINK-3240,1 49728U 21115E   23337.09651104 -.00001618  00000-0 -83585-4 0  9995,2 49728  53.2179 274.3276 0001786 126.9459 233.1697 15.08832550111560,6917.903,95.438,541.004,538.533,0.0
49728.0,STARLINK-3240,PAYLOAD,2023-12-03 19:48:14,15.08827896,0.0001802,53.2174,271.0614,66.4323,293.6858,0.00043747,6.679e-05,0.0,0 STARLINK-3240,1 49728U 21115E   23337.82516527  .00006679  00000-0  43747-3 0  9990,2 49728  53.2174 271.0614 0001802  66.4323 293.6858 15.08827896111671,6917.917,95.438,541.029,538.536,0.0
49728.0,STARLINK-3240,PAYLOAD,2023-12-04 05:20:32,15.08845289,0.0001663,53.2164,269.276,75.5007,284.6169,0.00062567,9.685e-05,0.0,0 STARLINK-3240,1 49728U 21115E   23338.22260143  .00009685  00000-0  62567-3 0  9996,2 49728  53.2164 269.2760 0001663  75.5007 284.6169 15.08845289111734,6917.864,95.437,540.88,538.579,0.0
49728.0,STARLINK-3240,PAYLOAD,2023-12-04 19:39:00,15.0884844,0.0001667,53.2167,266.5976,82.3602,277.7579,0.00031945,4.801e-05,0.0,0 STARLINK-3240,1 49728U 21115E   23338.81876007  .00004801  00000-0  31945-3 0  9994,2 49728  53.2167 266.5976 0001667  82.3602 277.7579 15.08848440110714,6917.855,95.437,540.873,538.566,0.0
49728.0,STARLINK-3240,PAYLOAD,2023-12-05 02:00:33,15.08853888,0.0001915,53.2182,265.4081,75.2838,284.8367,0.00053322,8.212e-05,0.0,0 STARLINK-3240,1 49728U 21115E   23339.08371745  .00008212  00000-0  53322-3 0  9996,2 49728  53.2182 265.4081 0001915  75.2838 284.8367 15.08853888111867,6917.838,95.437,541.028,538.378,0.0
49728.0,STARLINK-3240,PAYLOAD,2023-12-05 05:11:19,15.08857865,0.0001931,53.2177,264.8136,70.8238,289.2963,0.00053053,8.17e-05,0.0,0 STARLINK-3240,1 49728U 21115E   23339.21619535  .00008170  00000-0  53053-3 0  9997,2 49728  53.2177 264.8136 0001931  70.8238 289.2963 15.08857865110777,6917.826,95.436,541.027,538.355,0.0
49728.0,STARLINK-3240,PAYLOAD,2023-12-06 01:51:20,15.08845747,0.0001786,53.2181,260.9428,86.9843,273.1353,3.973e-05,3.44e-06,0.0,0 STARLINK-3240,1 49728U 21115E   23340.07731559  .00000344  00000-0  39730-4 0  9996,2 49728  53.2181 260.9428 0001786  86.9843 273.1353 15.08845747112011,6917.863,95.437,540.963,538.492,0.0
49728.0,STARLINK-3240,PAYLOAD,2023-12-06 05:02:06,15.08844742,0.0001816,53.2171,260.3525,86.3503,273.7697,2.3506e-05,8.6e-07,0.0,0 STARLINK-3240,1 49728U 21115E   23340.20979490  .00000086  00000-0  23506-4 0  9996,2 49728  53.2171 260.3525 0001816  86.3503 273.7697 15.08844742110922,6917.866,95.437,540.987,538.475,0.0
49728.0,STARLINK-3240,PAYLOAD,2023-12-06 22:31:20,15.08837848,0.0001901,53.2171,257.0812,101.667,258.4535,-0.00012843,-2.331e-05,0.0,0 STARLINK-3240,1 49728U 21115E   23340.93843688 -.00002331  00000-0 -12843-3 0  9993,2 49728  53.2171 257.0812 0001901 101.6670 258.4535 15.08837848111038,6917.887,95.438,541.067,538.437,0.0
49728.0,STARLINK-3240,PAYLOAD,2023-12-07 00:06:44,15.0883872,0.0001866,53.2172,256.7822,105.8467,254.2731,-0.00012359,-2.255e-05,0.0,0 STARLINK-3240,1 49728U 21115E   23341.00467674 -.00002255  00000-0 -12359-3 0  9996,2 49728  53.2172 256.7822 0001866 105.8467 254.2731 15.08838720112152,6917.884,95.438,541.04,538.458,0.0
49728.0,STARLINK-3240,PAYLOAD,2023-12-08 03:08:17,15.08841573,0.0001682,53.2164,251.7327,90.8841,269.2344,3.7759e-05,3.13e-06,0.0,0 STARLINK-3240,1 49728U 21115E   23342.13075883  .00000313  00000-0  37759-4 0  9991,2 49728  53.2164 251.7327 0001682  90.8841 269.2344 15.08841573112328,6917.876,95.437,540.904,538.577,0.0
49728.0,STARLINK-3240,PAYLOAD,2023-12-09 02:59:05,15.08834098,0.0001554,53.2157,247.271,98.138,261.9788,0.00020824,3.027e-05,0.0,0 STARLINK-3240,1 49728U 21115E   23343.12436510  .00003027  00000-0  20824-3 0  9998,2 49728  53.2157 247.2710 0001554  98.1380 261.9788 15.08834098112474,6917.898,95.438,540.838,538.688,0.0
49728.0,STARLINK-3240,PAYLOAD,2023-12-10 21:54:29,15.08841573,0.0001543,53.2162,239.2422,94.0958,266.0211,4.4736e-05,4.24e-06,0.0,0 STARLINK-3240,1 49728U 21115E   23344.91284115  .00000424  00000-0  44736-4 0  9995,2 49728  53.2162 239.2422 0001543  94.0958 266.0211 15.08841573111635,6917.876,95.437,540.808,538.673,0.0
49728.0,STARLINK-3240,PAYLOAD,2023-12-10 23:29:52,15.08840754,0.0001568,53.2164,238.9452,92.1915,267.9256,3.8433e-05,3.24e-06,0.0,0 STARLINK-3240,1 49728U 21115E   23344.97908170  .00000324  00000-0  38433-4 0  9991,2 49728  53.2164 238.9452 0001568  92.1915 267.9256 15.08840754112758,6917.878,95.438,540.828,538.658,0.0
49728.0,STARLINK-3240,PAYLOAD,2023-12-11 21:45:16,15.08844637,0.0001487,53.216,234.7823,96.8191,263.2971,7.1878e-05,8.56e-06,0.0,0 STARLINK-3240,1 49728U 21115E   23345.90643835  .00000856  00000-0  71878-4 0  9999,2 49728  53.2160 234.7823 0001487  96.8191 263.2971 15.08844637111786,6917.866,95.437,540.76,538.703,0.0
49728.0,STARLINK-3240,PAYLOAD,2023-12-11 23:20:39,15.08844995,0.0001495,53.216,234.4848,96.9874,263.1288,8.4259e-05,1.053e-05,0.0,0 STARLINK-3240,1 49728U 21115E   23345.97267854  .00001053  00000-0  84259-4 0  9996,2 49728  53.2160 234.4848 0001495  96.9874 263.1288 15.08844995111796,6917.865,95.437,540.764,538.696,0.0
49728.0,STARLINK-3240,PAYLOAD,2023-12-12 20:00:40,15.08840984,0.0001603,53.2171,230.6217,104.6815,255.4355,5.1206e-05,5.27e-06,0.0,0 STARLINK-3240,1 49728U 21115E   23346.83380184  .00000527  00000-0  51206-4 0  9995,2 49728  53.2171 230.6217 0001603 104.6815 255.4355 15.08840984113031,6917.877,95.437,540.851,538.633,0.0
49728.0,STARLINK-3240,PAYLOAD,2023-12-12 21:36:03,15.08842116,0.0001505,53.2166,230.3222,97.5321,262.5842,5.773e-05,6.31e-06,0.0,0 STARLINK-3240,1 49728U 21115E   23346.90004117  .00000631  00000-0  57730-4 0  9996,2 49728  53.2166 230.3222 0001505  97.5321 262.5842 15.08842116111937,6917.874,95.437,540.78,538.698,0.0
49728.0,STARLINK-3240,PAYLOAD,2023-12-12 23:11:26,15.08843566,0.0001508,53.2167,230.0247,97.1425,262.9739,6.6787e-05,7.75e-06,0.0,0 STARLINK-3240,1 49728U 21115E   23346.96627987  .00000775  00000-0  66787-4 0  9999,2 49728  53.2167 230.0247 0001508  97.1425 262.9739 15.08843566111946,6917.869,95.437,540.778,538.691,0.0
49728.0,STARLINK-3240,PAYLOAD,2023-12-13 21:26:50,15.08841323,0.0001537,53.2164,225.8615,99.1086,261.008,7.0657e-05,8.37e-06,0.0,0 STARLINK-3240,1 49728U 21115E   23347.89363929  .00000837  00000-0  70657-4 0  9995,2 49728  53.2164 225.8615 0001537  99.1086 261.0080 15.08841323112085,6917.876,95.437,540.805,538.678,0.0
49728.0,STARLINK-3240,PAYLOAD,2023-12-13 23:02:13,15.08842693,0.0001549,53.2166,225.5639,98.9404,261.1763,8.0562e-05,9.94e-06,0.0,0 STARLINK-3240,1 49728U 21115E   23347.95987809  .00000994  00000-0  80562-4 0  9991,2 49728  53.2166 225.5639 0001549  98.9404 261.1763 15.08842693113209,6917.872,95.437,540.809,538.666,0.0
49728.0,STARLINK-3240,PAYLOAD,2023-12-14 19:42:14,15.08833967,0.0001571,53.2173,221.6972,99.9624,260.1546,2.3003e-05,7.8e-07,0.0,0 STARLINK-3240,1 49728U 21115E   23348.82100673  .00000078  00000-0  23003-4 0  9994,2 49728  53.2173 221.6972 0001571  99.9624 260.1546 15.08833967113330,6917.899,95.438,540.851,538.677,0.0
